347P/PANSTARRS,e,11.7650,260.9799,98.0225,3.598132,0.1444071,0.38718816,132.2672,01/20.0/2026,2000,g 15.0,4.0
# From MPEC 2025-W75
348P/PANSTARRS,e,17.7446,312.8882,135.8320,3.151170,0.1761961,0.30751458,253.0036,01/20.0/2026,2000,g 14.0,4.0
# From MPEC 2025-W75
349P/Lemmon,e,5.4897,331.7385,255.7055,3.577249,0.1456734,0.29868779,87.8600,01/20.0/2026,2000,g 14.0,4.0
# From MPEC 2025-W75
350P/McNaught,e,7.3654,65.2966,140.0720,4.081615,0.1195242,0.09489737,353.2454,01/20.0/2026,2000,g 14.0,4.0
# From MPEC 2026-A24
351P/Wiegert-PANSTARRS,e,12.7781,283.3831,352.5295,4.439639,0.1053617,0.29463218,31.6091,01/20.0/2026,2000,g 12.5,4.0
# From MPEC 2025-W75
352P/Skiff,e,20.9970,28.0751,309.3315,6.657080,0.0573824,0.61557910,180.1532,01/20.0/2026,2000,g 11.5,4.0
# From MPEC 2025-W75
353P/McNaught,e,28.4102,121.4571,230.5296,4.170372,0.1157289,0.46965146,341.2047,01/20.0/2026,2000,g 14.5,4.0
# From MPEC 2025-W75
354P/LINEAR,e,5.2512,320.0556,133.0109,2.290190,0.2843785,0.12445838,235.5895,01/20.0/2026,2000,g 15.5,4.0
# From MPEC 2025-W75
355P/LINEAR-NEAT,e,11.0461,51.4214,336.2443,3.466471,0.1527119,0.50786186,100.6183,01/20.0/2026,2000,g 15.5,2.0
# From MPEC 2025-W75
356P/WISE,e,9.6401,160.7448,226.2924,4.150767,0.1165498,0.35567021,343.2817,01/20.0/2026,2000,g 14.0,4.0
# From MPEC 2025-W75
357P/Hill,e,6.3133,44.5336,1.5563,4.454304,0.1048418,0.43587503,292.0787,01/20.0/2026,2000,g 15.5,4.0
# From MPEC 2025-W75
358P/PANSTARRS,e,11.0667,85.6655,299.2930,3.145381,0.1766828,0.23941198,141.8298,01/20.0/2026,2000,g 18.0,4.0
# From MPEC 2025-W75
359P/LONEOS,e,10.2590,149.6891,200.2980,4.643195,0.0985096,0.32296758,302.7286,01/20.0/2026,2000,g 13.5,4.0
# From MPEC 2025-W75
360P/WISE,e,24.1177,2.0446,354.4201,3.699884,0.1384911,0.49972932,65.5142,01/20.0/2026,2000,g 19.5,6.0
# From MPEC 2025-W75
361P/Spacewatch,e,13.8953,203.2085,219.1705,4.932731,0.0899649,0.43939070,247.6271,01/20.0/2026,2000,g 12.0,4.0
# From MPEC 2025-W75
363P/Lemmon,e,5.3938,146.7506,340.7953,3.575799,0.1457621,0.51861677,63.0757,01/20.0/2026,2000,g 17.5,4.0
# From MPEC 2025-W75
364P/PANSTARRS,e,11.8289,45.6614,212.9756,2.903746,0.1991894,0.71592681,196.1671,01/20.0/2026,2000,g 17.0,2.0
# From MPEC 2025-W75
365P/PANSTARRS,e,9.8445,86.2979,67.7684,3.156302,0.1757665,0.58183147,146.4685,01/20.0/2026,2000,g 17.0,4.0
# From MPEC 2025-W75
366P/Spacewatch,e,8.8560,70.7571,152.9337,3.500326,0.1505017,0.34869906,53.3024,01/20.0/2026,2000,g 15.0,4.0
# From MPEC 2025-W75
367P/Catalina,e,8.4580,58.7087,172.6065,3.511520,0.1497826,0.28020254,55.9517,01/20.0/2026,2000,g 17.5,2.0
# From MPEC 2025-W75
368P/NEAT,e,15.4866,257.7829,119.0557,5.536638,0.0756545,0.62520012,203.1186,01/20.0/2026,2000,g 14.0,4.0
# From MPEC 2025-W75
369P/Hill,e,10.3202,47.2665,13.2728,4.377896,0.1075984,0.55579942,284.8826,01/20.0/2026,2000,g 15.0,4.0
# From MPEC 2025-W75
370P/NEAT,e,19.4180,55.0672,356.8258,6.442011,0.0602798,0.61477882,167.4895,01/20.0/2026,2000,g 13.0,4.0
# From MPEC 2025-W75
371P/LINEAR-Skiff,e,17.3879,67.2238,308.6185,4.180551,0.1153065,0.47639676,306.8310,01/20.0/2026,2000,g 16.0,4.0
# From MPEC 2025-W75
372P/McNaught,e,9.4988,325.7592,27.6577,4.513963,0.1027702,0.15101377,272.1529,01/20.0/2026,2000,g 13.5,4.0
# From MPEC 2025-W75
373P/Rinner,e,13.7725,231.9483,221.1547,3.796131,0.1332577,0.39383290,329.6141,01/20.0/2026,2000,g 14.5,4.0
# From MPEC 2025-W75
374P/Larson,e,10.7553,7.8305,51.6374,4.971575,0.0889125,0.46341885,227.7927,01/20.0/2026,2000,g 14.0,4.0
# From MPEC 2025-W75
375P/Hill,e,17.3807,359.7978,119.5006,5.544888,0.0754857,0.66040415,194.9906,01/20.0/2026,2000,g 16.0,4.0
# From MPEC 2025-W75
376P/LONEOS,e,1.1662,312.8531,285.2971,5.753786,0.0714124,0.51394762,165.7955,01/20.0/2026,2000,g 12.5,4.0
# From MPEC 2025-W75
377P/Scotti,e,9.0445,225.8287,354.9910,6.693952,0.0569089,0.25183297,114.9269,01/20.0/2026,2000,g  9.5,4.0
# From MPEC 2026-A90
378P/McNaught,e,19.1585,93.7924,193.2469,6.285625,0.0625434,0.46279464,120.9516,01/20.0/2026,2000,g 12.0,4.0
# From MPEC 2026-A24
379P/Spacewatch,e,12.4298,183.5094,31.6156,3.484052,0.1515574,0.34998505,354.8608,01/20.0/2026,2000,g 15.0,4.0
# From MPEC 2025-W75
380P/PANSTARRS,e,8.0416,127.6343,87.3781,4.453742,0.1048616,0.33272643,262.4248,01/20.0/2026,2000,g 12.5,4.0
# From MPEC 2025-W75
381P/LINEAR-Spacewatch,e,28.3230,173.8328,173.3351,7.145183,0.0516041,0.68019827,119.2100,01/20.0/2026,2000,g 17.5,2.0
# From MPEC 2025-W75
382P/Larson,e,8.3065,169.4077,162.8592,5.885081,0.0690360,0.26189520,107.1655,01/20.0/2026,2000,g  8.0,4.0
# From MPEC 2025-W75
383P/Christensen,e,12.3203,207.8193,133.7409,3.549603,0.1473786,0.59841511,335.8890,01/20.0/2026,2000,g 18.0,4.0
# From MPEC 2025-W75
384P/Kowalski,e,7.2840,354.1875,37.6949,2.897054,0.1998800,0.61617208,97.5287,01/20.0/2026,2000,g 19.5,4.0
# From MPEC 2025-W75
385P/Hill,e,16.8164,356.9865,44.5139,4.289311,0.1109488,0.40165144,257.0215,01/20.0/2026,2000,g 13.0,4.0
# From MPEC 2025-W75
386P/PANSTARRS,e,15.2488,134.9175,353.1328,4.048142,0.1210098,0.41768256,239.2616,01/20.0/2026,2000,g 14.5,4.0
# From MPEC 2025-W75
387P/Boattini,e,8.9423,259.2106,162.8889,4.797722,0.0937889,0.73679333,218.0287,01/20.0/2026,2000,g 15.0,4.0
# From MPEC 2025-W75
388P/Gibbs,e,23.8680,37.0034,42.3908,5.241034,0.0821445,0.61926561,194.5736,01/20.0/2026,2000,g 13.0,4.0
# From MPEC 2025-W75
389P/SidingSpring,e,160.0752,218.8266,249.2786,5.628729,0.0738055,0.70598935,163.2438,01/20.0/2026,2000,g 16.0,4.0
# From MPEC 2025-W75
390P/Gibbs,e,18.5140,152.1773,232.5916,5.819253,0.0702107,0.70627168,149.5706,01/20.0/2026,2000,g 12.0,4.0
# From MPEC 2025-W75
391P/Kowalski,e,21.2514,124.7075,186.8053,4.693318,0.0969358,0.11832798,278.4999,01/20.0/2026,2000,g  8.0,4.0
# From MPEC 2025-W75
392P/LINEAR,e,4.9252,24.7846,72.0043,6.143581,0.0647249,0.68389725,137.0585,01/20.0/2026,2000,g 14.5,4.0
# From MPEC 2025-W75
393P/Spacewatch-Hill,e,16.7799,36.4046,329.1336,4.802323,0.0936541,0.11870065,213.1194,01/20.0/2026,2000,g 11.0,4.0
# From MPEC 2025-W75
394P/PANSTARRS,e,8.5276,98.0854,54.5157,4.324929,0.1095811,0.36869158,245.4903,01/20.0/2026,2000,g 16.0,2.4
# From MPEC 2025-W75
395P/Catalina-NEAT,e,3.5665,220.9317,100.7994,7.203003,0.0509840,0.41031905,72.9437,01/20.0/2026,2000,g 10.0,4.0
# From MPEC 2025-W75
396P/Leonard,e,5.4442,136.6014,8.3266,6.798406,0.0556024,0.41728211,129.8163,01/20.0/2026,2000,g 12.0,4.0
# From MPEC 2025-W75
397P/Lemmon,e,10.9174,8.1621,14.6226,3.832713,0.1313544,0.40435151,268.0020,01/20.0/2026,2000,g 12.0,4.0
# From MPEC 2025-W75
398P/Boattini,e,11.0284,127.4070,320.3008,3.123550,0.1785383,0.58376317,329.8362,01/20.0/2026,2000,g 15.5,4.0
# From MPEC 2025-W75
399P/PANSTARRS,e,13.3132,207.1016,214.4772,3.793859,0.1333774,0.44711378,227.0348,01/20.0/2026,2000,g 14.0,4.0
# From MPEC 2025-W75
400P/PANSTARRS,e,10.9252,176.3301,238.9821,3.561856,0.1466188,0.40946575,264.3727,01/20.0/2026,2000,g 15.5,2.8
# From MPEC 2025-W75
401P/McNaught,e,12.8021,359.9096,309.3083,5.775635,0.0710075,0.57827269,159.1715,01/20.0/2026,2000,g 12.5,4.0
# From MPEC 2025-W75
402P/LINEAR,e,30.8289,123.0340,327.0735,7.045045,0.0527082,0.43990628,78.8386,01/20.0/2026,2000,g  8.0,4.0
# From MPEC 2025-W75
403P/Catalina,e,12.3135,163.7106,277.8471,5.433826,0.0778118,0.50408353,151.7271,01/20.0/2026,2000,g 12.0,4.0
# From MPEC 2025-W75
404P/Bressi,e,9.8037,260.0342,168.8151,4.715898,0.0962404,0.12377303,78.2357,01/20.0/2026,2000,g 10.0,4.0
# From MPEC 2025-W75
405P/Lemmon,e,9.3743,3.2024,112.3133,3.603123,0.1441071,0.69029405,266.6807,01/20.0/2026,2000,g 17.5,4.0
# From MPEC 2025-W75
406P/Gibbs,e,1.2100,11.4949,352.4336,3.580119,0.1454983,0.54082624,284.1961,01/20.0/2026,2000,g 17.0,4.0
# From MPEC 2025-W75
407P/PANSTARRS-Fuls,e,4.8725,80.2389,92.9731,3.495198,0.1508330,0.37533665,331.8835,01/20.0/2026,2000,g 14.0,4.0
# From MPEC 2025-W75
408P/Novichonok-Gerke,e,19.3477,189.4518,226.7381,4.747007,0.0952959,0.26814381,114.5503,01/20.0/2026,2000,g 11.0,4.0
# From MPEC 2025-W75
409P/LONEOS-Hill,e,17.1555,143.6393,15.0400,6.032487,0.0665211,0.71045420,120.8567,01/20.0/2026,2000,g 14.0,4.0
# From MPEC 2025-W75
410P/NEAT-LINEAR,e,9.3888,139.8912,313.3656,6.656842,0.0573854,0.51160805,95.8382,01/20.0/2026,2000,g 12.5,4.0
# From MPEC 2025-W75
411P/Christensen,e,12.3867,77.6464,46.5920,5.812214,0.0703383,0.58193302,127.9951,01/20.0/2026,2000,g 13.5,4.0
# From MPEC 2025-W75
412P/WISE,e,8.9281,0.8251,155.8236,3.113218,0.1794278,0.47913304,336.5745,01/20.0/2026,2000,g 17.0,4.0
# From MPEC 2025-W75
413P/Larson,e,15.9515,38.9373,186.6782,3.737324,0.1364153,0.41741270,225.3447,01/20.0/2026,2000,g 14.0,4.0
# From MPEC 2026-A24
414P/STEREO,e,23.4067,257.8151,210.7119,2.792380,0.2112235,0.81228290,24.4357,01/20.0/2026,2000,g 19.0,4.0
# From MPEC 2025-W75
415P/Tenagra,e,31.8157,160.2576,345.9298,4.107246,0.1184072,0.19575182,213.0894,01/20.0/2026,2000,g 12.0,4.0
# From MPEC 2025-W75
416P/Scotti,e,3.3643,355.7221,134.4848,4.005715,0.1229374,0.45566090,220.9749,01/20.0/2026,2000,g 15.5,4.0
# From MPEC 2025-W75
417P/NEOWISE,e,11.3460,95.2707,142.0974,3.385523,0.1582215,0.53644736,283.1407,01/20.0/2026,2000,g 16.5,4.0
# From MPEC 2025-W75
418P/LINEAR,e,5.7867,277.2578,307.6577,5.087704,0.0858858,0.66420685,133.6853,01/20.0/2026,2000,g 13.0,4.0
# From MPEC 2025-W75
419P/PANSTARRS,e,2.7913,40.3691,187.7232,3.538283,0.1480864,0.27241319,230.0065,01/20.0/2026,2000,g 12.5,4.0
# From MPEC 2025-W75
420P/Hill,e,14.5270,173.3437,156.4008,5.472195,0.0769949,0.49486642,103.5294,01/20.0/2026,2000,g 11.5,4.0
# From MPEC 2025-W75
421P/McNaught,e,10.0745,55.3092,259.8384,5.073645,0.0862430,0.67440569,157.2687,01/20.0/2026,2000,g 14.0,4.0
# From MPEC 2025-W75
422P/Christensen,e,39.5799,36.0083,304.7275,6.271718,0.0627515,0.50538085,92.3127,01/20.0/2026,2000,g 11.0,4.0
# From MPEC 2025-W75
423P/Lemmon,e,8.3404,33.2997,81.1442,6.185103,0.0640743,0.12278156,100.8432,01/20.0/2026,2000,g  8.0,4.0
# From MPEC 2025-W75
424P/LaSagra,e,8.6819,51.1935,312.5732,4.421662,0.1060049,0.69007365,163.5330,01/20.0/2026,2000,g 17.0,4.0
# From MPEC 2025-W75
